NORAD_CAT_ID,OBJECT_NAME,OBJECT_TYPE,EPOCH,MEAN_MOTION,ECCENTRICITY,INCLINATION,RA_OF_ASC_NODE,ARG_OF_PERICENTER,MEAN_ANOMALY,BSTAR,MEAN_MOTION_DOT,MEAN_MOTION_DDOT,TLE_LINE0,TLE_LINE1,TLE_LINE2,SEMIMAJOR_AXIS,PERIOD,APOGEE,PERIGEE,DECAYED
53252.0,STARLINK-4132,PAYLOAD,2022-08-08 14:00:01,15.73223062,0.000169,53.2193,328.8661,35.1277,250.4693,7.478e-05,9.897e-05,0.0,0 STARLINK-4132,1 53252U 22086L   22220.58335648  .00009897  00000-0  74780-4 0  9998,2 53252  53.2193 328.8661 0001690  35.1277 250.4693 15.73223062  2997,6727.829000000002,91.532,350.831,348.557,0.0
53252.0,STARLINK-4132,PAYLOAD,2022-08-08 22:00:00,15.73274924,0.0001725,53.2196,327.2163,32.2449,342.2519,-0.00083882,-0.00117099,0.0,0 STARLINK-4132,1 53252U 22086L   22220.91667824 -.00117099  00000-0 -83882-3 0  9997,2 53252  53.2196 327.2163 0001725  32.2449 342.2519 15.73274924  1302,6727.682,91.529,350.707,348.386,0.0
53252.0,STARLINK-4132,PAYLOAD,2022-08-09 04:00:00,15.7317891,0.0001682,53.2198,325.9776,39.8057,311.4283,-0.00031555,-0.00044633,0.0,0 STARLINK-4132,1 53252U 22086L   22221.16667824 -.00044633  00000-0 -31555-3 0  9998,2 53252  53.2198 325.9776 0001682  39.8057 311.4283 15.73178910  3080,6727.955,91.534,350.952,348.689,0.0
53252.0,STARLINK-4132,PAYLOAD,2022-08-09 14:00:01,15.7316157,0.0002035,53.22,323.9179,40.1718,152.1526,-0.00039663,-0.00055831,0.0,0 STARLINK-4132,1 53252U 22086L   22221.58334491 -.00055831  00000-0 -39663-3 0  9995,2 53252  53.2200 323.9179 0002035  40.1718 152.1526 15.73161570  1308,6728.005,91.535,351.23900000000015,348.501,0.0
53252.0,STARLINK-4132,PAYLOAD,2022-08-09 22:00:00,15.73124786,0.0001904,53.2196,322.268,34.3534,246.841,7.9412e-05,0.00010503,0.0,0 STARLINK-4132,1 53252U 22086L   22221.91667824  .00010503  00000-0  79412-4 0  9993,2 53252  53.2196 322.2680 0001904  34.3534 246.8410 15.73124786  3208,6728.11,91.538,351.256,348.694,0.0
53252.0,STARLINK-4132,PAYLOAD,2022-08-10 14:00:01,15.73191673,0.0001985,53.2197,318.9705,34.8584,64.1703,-6.650699999999999e-05,-9.941e-05,0.0,0 STARLINK-4132,1 53252U 22086L   22222.58334491 -.00009941  00000-0 -66507-4 0  9995,2 53252  53.2197 318.9705 0001985  34.8584  64.1703 15.73191673  1302,6727.919,91.534,351.119,348.4480000000001,0.0
53252.0,STARLINK-4132,PAYLOAD,2022-08-10 16:00:00,15.73189004,0.0001994,53.2199,318.5585,32.8455,178.41299999999995,-5.8631e-05,-8.837e-05,0.0,0 STARLINK-4132,1 53252U 22086L   22222.66667824 -.00008837  00000-0 -58631-4 0  9995,2 53252  53.2199 318.5585 0001994  32.8455 178.4130 15.73189004  3323,6727.927,91.534,351.1330000000001,348.45,0.0
53252.0,STARLINK-4132,PAYLOAD,2022-08-10 22:00:00,15.73193466,0.0001913,53.2199,317.3203,30.7354,157.2234,-0.00022091,-0.00031501,0.0,0 STARLINK-4132,1 53252U 22086L   22222.91667824 -.00031501  00000-0 -22091-3 0  9997,2 53252  53.2199 317.3203 0001913  30.7354 157.2234 15.73193466  1306,6727.9140000000025,91.534,351.066,348.492,0.0
53252.0,STARLINK-4132,PAYLOAD,2022-08-11 14:00:01,15.73141124,0.0002242,53.2201,314.0226,36.4908,329.2682,0.0002293,0.00031602,0.0,0 STARLINK-4132,1 53252U 22086L   22223.58334491  .00031602  00000-0  22930-3 0  9994,2 53252  53.2201 314.0226 0002242  36.4908 329.2682 15.73141124  1305,6728.063,91.537,351.436,348.42,0.0
53252.0,STARLINK-4132,PAYLOAD,2022-08-11 22:00:00,15.73184599,0.0002164,53.2197,312.3724,35.7469,58.8785,-1.9781e-05,-3.395e-05,0.0,0 STARLINK-4132,1 53252U 22086L   22223.91667824 -.00003395  00000-0 -19781-4 0  9991,2 53252  53.2197 312.3724 0002164  35.7469  58.8785 15.73184599  3528,6727.939,91.534,351.26,348.348,0.0
53252.0,STARLINK-4132,PAYLOAD,2022-08-12 04:00:00,15.73190294,0.0002059,53.2196,311.1345,39.3383,32.0089,0.00063377,0.00089241,0.0,0 STARLINK-4132,1 53252U 22086L   22224.16667824  .00089241  00000-0  63377-3 0  9990,2 53252  53.2196 311.1345 0002059  39.3383  32.0089 15.73190294  3565,6727.9230000000025,91.534,351.173,348.403,0.0
53252.0,STARLINK-4132,PAYLOAD,2022-08-12 14:00:01,15.73283323,0.0002234999999999,53.2195,309.0751,32.764,239.792,-0.00025808,-0.00036817,0.0,0 STARLINK-4132,1 53252U 22086L   22224.58334491 -.00036817  00000-0 -25808-3 0  9997,2 53252  53.2195 309.0751 0002235  32.7640 239.7920 15.73283323  1306,6727.658,91.528,351.026,348.019,0.0
53252.0,STARLINK-4132,PAYLOAD,2022-08-12 20:00:01,15.73284055,0.0002130999999999,53.2193,307.8372,27.9852,221.3918,-0.00085904,-0.00119923,0.0,0 STARLINK-4132,1 53252U 22086L   22224.83335648 -.00119923  00000-0 -85904-3 0  9993,2 53252  53.2193 307.8372 0002131  27.9852 221.3918 15.73284055  3663,6727.656,91.528,350.954,348.087,0.0
53252.0,STARLINK-4132,PAYLOAD,2022-08-12 22:00:01,15.73250424,0.0002035,53.2195,307.4243,27.8673,333.7659,-0.00054846,-0.00077065,0.0,0 STARLINK-4132,1 53252U 22086L   22224.91668981 -.00077065  00000-0 -54846-3 0  9992,2 53252  53.2195 307.4243 0002035  27.8673 333.7659 15.73250424  1303,6727.751,91.53,350.986,348.247,0.0
53252.0,STARLINK-4132,PAYLOAD,2022-08-13 04:00:00,15.73201097,0.0001969,53.2195,306.1861,28.5576,309.7253,-0.00014872,-0.00021442,0.0,0 STARLINK-4132,1 53252U 22086L   22225.16667824 -.00021442  00000-0 -14872-3 0  9998,2 53252  53.2195 306.1861 0001969  28.5576 309.7253 15.73201097  3712,6727.892,91.533,351.082,348.432,0.0
53252.0,STARLINK-4132,PAYLOAD,2022-08-13 14:00:01,15.73139344,0.0002333,53.2196,304.1268,26.4843,152.9454,-0.00011473,-0.00016651,0.0,0 STARLINK-4132,1 53252U 22086L   22225.58334491 -.00016651  00000-0 -11473-3 0  9995,2 53252  53.2196 304.1268 0002333  26.4843 152.9454 15.73139344  3785,6728.068,91.537,351.50300000000016,348.36300000000006,0.0
53252.0,STARLINK-4132,PAYLOAD,2022-08-13 22:00:00,15.73142587,0.0002171999999999,53.2191,302.4762,25.531,242.7435,2.5257e-05,2.917e-05,0.0,0 STARLINK-4132,1 53252U 22086L   22225.91667824  .00002917  00000-0  25257-4 0  9995,2 53252  53.2191 302.4762 0002172  25.5310 242.7435 15.73142587  1306,6728.059,91.537,351.385,348.463,0.0
53252.0,STARLINK-4132,PAYLOAD,2022-08-14 06:00:02,15.73138538,0.0002016,53.2184,300.8228,29.2565,327.9459,0.00070377,0.00099063,0.0,0 STARLINK-4132,1 53252U 22086L   22226.25002315  .00099063  00000-0  70377-3 0  9991,2 53252  53.2184 300.8228 0002016  29.2565 327.9459 15.73138538  3885,6728.07,91.537,351.292,348.579,0.0
53252.0,STARLINK-4132,PAYLOAD,2022-08-14 14:00:01,15.73181656,0.0002373,53.2189,299.1792,25.4777,60.5906,0.00048872,0.0006848,0.0,0 STARLINK-4132,1 53252U 22086L   22226.58334491  .00068480  00000-0  48872-3 0  9994,2 53252  53.2189 299.1792 0002373  25.4777  60.5906 15.73181656  1306,6727.946999999999,91.534,351.409,348.216,0.0
53252.0,STARLINK-4132,PAYLOAD,2022-08-14 22:00:00,15.73265573,0.0002259,53.2189,297.528,24.2426,150.7731,-0.00023687,-0.00033829,0.0,0 STARLINK-4132,1 53252U 22086L   22226.91667824 -.00033829  00000-0 -23687-3 0  9998,2 53252  53.2189 297.5280 0002259  24.2426 150.7731 15.73265573  3997,6727.708000000001,91.529,351.093,348.05300000000005,0.0
53252.0,STARLINK-4132,PAYLOAD,2022-08-15 14:00:01,15.73180221,0.0002420999999999,53.219,294.2305,17.2476,335.7194,5.4258e-05,6.994e-05,0.0,0 STARLINK-4132,1 53252U 22086L   22227.58334491  .00006994  00000-0  54258-4 0  9993,2 53252  53.2190 294.2305 0002421  17.2476 335.7194 15.73180221  1306,6727.9519999999975,91.534,351.445,348.18800000000016,0.0
53252.0,STARLINK-4132,PAYLOAD,2022-08-15 22:00:00,15.73190433,0.0002266999999999,53.2187,292.5794,15.6148,66.2661,0.0001946,0.00026767,0.0,0 STARLINK-4132,1 53252U 22086L   22227.91667824  .00026767  00000-0  19460-3 0  9994,2 53252  53.2187 292.5794 0002267  15.6148  66.2661 15.73190433  1302,6727.922,91.534,351.31300000000016,348.26199999999994,0.0
53252.0,STARLINK-4132,PAYLOAD,2022-08-16 06:00:02,15.73254991,0.0002281,53.2187,290.9299,20.8608,150.0062,-0.00046747,-0.00065879,0.0,0 STARLINK-4132,1 53252U 22086L   22228.25002315 -.00065879  00000-0 -46747-3 0  9997,2 53252  53.2187 290.9299 0002281  20.8608 150.0062 15.73254991  4208,6727.738,91.53,351.13800000000015,348.069,0.0
53252.0,STARLINK-4132,PAYLOAD,2022-08-16 14:00:01,15.73163843,0.0002636,53.2185,289.2822,20.8425,238.9394,0.00057073,0.00080128,0.0,0 STARLINK-4132,1 53252U 22086L   22228.58334491  .00080128  00000-0  57073-3 0  9992,2 53252  53.2185 289.2822 0002636  20.8425 238.9394 15.73163843  1307,6727.998000000001,91.535,351.63699999999994,348.09,0.0
53252.0,STARLINK-4132,PAYLOAD,2022-08-16 22:00:00,15.732437,0.0002400999999999,53.2186,287.6309,20.1206,328.5813,-0.00045207,-0.00063716,0.0,0 STARLINK-4132,1 53252U 22086L   22228.91667824 -.00063716  00000-0 -45207-3 0  9990,2 53252  53.2186 287.6309 0002401  20.1206 328.5813 15.73243700  1303,6727.771,91.531,351.251,348.02,0.0
53252.0,STARLINK-4132,PAYLOAD,2022-08-17 14:00:01,15.73203986,0.0002675,53.2188,284.3336,15.4876,151.0902,-6.6611e-05,-9.963e-05,0.0,0 STARLINK-4132,1 53252U 22086L   22229.58334491 -.00009963  00000-0 -66611-4 0  9992,2 53252  53.2188 284.3336 0002675  15.4876 151.0902 15.73203986  4417,6727.884,91.533,351.5490000000001,347.949,0.0
53252.0,STARLINK-4132,PAYLOAD,2022-08-18 14:00:01,15.73254484,0.0002798,53.2183,279.3854,16.6669,56.7455,-8.310799999999999e-05,-0.00012299,0.0,0 STARLINK-4132,1 53252U 22086L   22230.58334491 -.00012299  00000-0 -83108-4 0  9990,2 53252  53.2183 279.3854 0002798  16.6669  56.7455 15.73254484  1308,6727.74,91.53,351.487,347.722,0.0
53252.0,STARLINK-4132,PAYLOAD,2022-08-18 22:00:00,15.73247482,0.0002607,53.2185,277.7338,18.9839,143.4197,-0.00037328,-0.00052798,0.0,0 STARLINK-4132,1 53252U 22086L   22230.91667824 -.00052798  00000-0 -37328-3 0  9996,2 53252  53.2185 277.7338 0002607  18.9839 143.4197 15.73247482  4627,6727.76,91.53,351.379,347.871,0.0
53252.0,STARLINK-4132,PAYLOAD,2022-08-19 14:00:01,15.73172235,0.0002937,53.2186,274.4368,18.8205,321.4787,-4.7607e-05,-7.292e-05,0.0,0 STARLINK-4132,1 53252U 22086L   22231.58334491 -.00007292  00000-0 -47607-4 0  9992,2 53252  53.2186 274.4368 0002937  18.8205 321.4787 15.73172235  1305,6727.974,91.535,351.815,347.86300000000006,0.0
